231P/LINEAR-NEAT,e,12.3334,133.0283,42.7229,4.017992,0.1223743,0.24774548,338.5707,12/21.0/2018,2000,g 14.5,2.0
# From MPC112394
232P/Hill,e,14.6307,56.0306,53.5530,4.486930,0.1037003,0.33484284,348.9450,12/21.0/2018,2000,g 11.5,4.0
# From MPC 92986
233P/La Sagra,e,11.2844,74.9276,27.0989,3.029422,0.1869237,0.41150216,238.3346,12/21.0/2018,2000,g 15.0,4.0
# From MPC110497
234P/LINEAR,e,11.5152,179.6250,357.6803,3.808737,0.1325966,0.25363054,75.4891,12/21.0/2018,2000,g 12.0,4.0
# From MPC110497
235P/LINEAR,e,8.8992,204.4465,333.8270,3.997474,0.1233178,0.31659724,34.3021,12/21.0/2018,2000,g 12.0,4.0
# From MPC107688
236P/LINEAR,e,16.3339,245.6705,119.2417,3.733282,0.1366369,0.50792469,54.0907,12/21.0/2018,2000,g 14.0,4.0
# From MPC109593
237P/LINEAR,e,14.0249,245.4226,25.1117,3.511976,0.1497534,0.43475527,119.8089,12/21.0/2018,2000,g 14.5,2.0
# From MPC107688
238P/Read,e,1.2645,51.6442,324.8116,3.163187,0.1751930,0.25232321,138.3811,12/21.0/2018,2000,g 14.5,4.0
# From MPC112394
239P/LINEAR,e,11.3056,255.9083,220.3780,4.470855,0.1042601,0.63106056,357.8982,12/21.0/2018,2000,g 17.5,2.0
# From MPC109593
240P/NEAT,e,23.5041,74.9264,352.0806,3.871444,0.1293882,0.44886561,28.3582,12/21.0/2018,2000,g 11.0,4.0
# From MPC 75729
241P/LINEAR,e,20.9083,305.6637,110.5576,4.961266,0.0891898,0.60894660,275.4181,12/21.0/2018,2000,g 13.5,4.0
# From MPC 81861
242P/Spahr,e,32.4869,180.5976,246.4782,5.474885,0.0769381,0.27756609,189.7257,12/21.0/2018,2000,g  8.0,4.0
# From MPC111774
243P/NEAT,e,7.6415,87.6583,283.5558,3.831374,0.1314232,0.35938413,15.3752,12/21.0/2018,2000,g 12.5,4.0
# From MPC 88331
244P/Scotti,e,2.2583,354.0040,92.8475,4.896447,0.0909667,0.19750293,230.1568,12/21.0/2018,2000,g  9.0,4.0
# From MPC111774
245P/WISE,e,21.1987,316.6761,316.6988,4.039228,0.1214106,0.45776910,38.2807,12/21.0/2018,2000,g 14.0,4.0
# From MPC 93589
246P/NEAT,e,15.9870,78.7506,176.1077,4.018818,0.1223366,0.28671503,262.8470,12/21.0/2018,2000,g 10.5,4.0
# From MPC112394
247P/LINEAR,e,13.6615,54.0107,47.4493,3.970990,0.1245535,0.62501504,2.3535,12/21.0/2018,2000,g 16.5,2.0
# From MPC 75730
248P/Gibbs,e,6.3486,207.7616,210.0187,5.987493,0.0672723,0.63780518,194.0427,12/21.0/2018,2000,g 14.0,4.0
# From MPC105243
249P/LINEAR,e,8.3969,239.1900,65.5768,2.762033,0.2147142,0.81990437,240.4974,12/21.0/2018,2000,g 15.5,4.0
# From MPC110497
250P/Larson,e,13.2912,73.6779,45.1476,3.732124,0.1367005,0.40687719,43.9689,12/21.0/2018,2000,g 14.5,4.0
# From MPC104795
251P/LINEAR,e,23.4196,219.4073,31.1937,3.507822,0.1500195,0.50588580,78.3738,12/21.0/2018,2000,g 16.5,2.0
# From MPC102956
252P/LINEAR,e,10.4183,190.9536,343.3454,3.048101,0.1852081,0.67248352,187.2507,12/21.0/2018,2000,g 17.5,4.0
# From MPC112394
253P/PANSTARRS,e,4.9404,146.8783,230.7185,3.469752,0.1524953,0.41302680,34.6613,12/21.0/2018,2000,g 14.5,4.0
# From MPC 81473
254P/McNaught,e,32.4872,129.2893,219.2316,4.627783,0.0990022,0.32212614,295.8793,12/21.0/2018,2000,g 11.0,4.0
# From NK 2214
255P/Levy,e,18.3686,279.4804,179.8651,3.037355,0.1861919,0.66939606,110.9887,12/21.0/2018,2000,g 20.0,4.0
# From MPC 84027
256P/LINEAR,e,27.6389,81.3491,124.3163,4.634505,0.0987868,0.41915157,207.7710,12/21.0/2018,2000,g 14.0,2.0
# From MPC 88332
257P/Catalina,e,20.2378,207.7833,117.7895,3.759063,0.1352336,0.43071308,274.7735,12/21.0/2018,2000,g 11.5,4.0
# From MPC 79655
258P/PANSTARRS,e,6.7443,126.2538,26.1230,4.404631,0.1066203,0.20968126,301.7235,12/21.0/2018,2000,g 13.0,4.0
# From MPC106349
259P/Garradd,e,15.8891,51.4821,257.5193,2.731984,0.2182664,0.33795552,109.9790,12/21.0/2018,2000,g 15.5,4.0
# From MPC102102
260P/McNaught,e,15.0507,349.3824,18.3327,3.623785,0.1428764,0.60898094,322.4371,12/21.0/2018,2000,g 13.5,4.0
# From MPC102102
261P/Larson,e,6.0759,291.1667,67.0943,3.488063,0.1512961,0.42274998,332.8246,12/21.0/2018,2000,g 14.0,4.0
# From MPC 82322
262P/McNaught-Russell,e,29.1181,217.9370,171.0195,6.881481,0.0545986,0.81437690,120.7742,12/21.0/2018,2000,g 13.5,4.0
# From MPC 82323
263P/Gibbs,e,11.5406,105.8064,34.5581,3.059806,0.1841464,0.58790210,82.3277,12/21.0/2018,2000,g 18.0,4.0
# From MPC102102
264P/Larsen,e,25.1506,220.9031,346.6123,3.893877,0.1282717,0.37372941,330.8945,12/21.0/2018,2000,g 13.0,4.0
# From MPC 79870
265P/LINEAR,e,14.3844,343.3725,33.3077,4.240383,0.1128746,0.64892299,271.8648,12/21.0/2018,2000,g 14.5,4.0
# From MPC 90771
266P/Christensen,e,3.4273,5.0085,97.9245,3.533673,0.1483763,0.33937824,287.9420,12/21.0/2018,2000,g 12.5,4.0
# From MPC 81862
267P/LONEOS,e,6.1380,228.6889,114.0818,3.212383,0.1711839,0.61364493,25.9650,12/21.0/2018,2000,g 19.5,4.0
# From MPC 92277
268P/Bernardi,e,16.1094,127.5932,0.2267,4.556830,0.1013234,0.46961081,135.2601,12/21.0/2018,2000,g 14.0,4.0
# From MPC104795
269P/Jedicke,e,7.0731,241.7033,226.0772,7.086734,0.0522438,0.43241357,80.2604,12/21.0/2018,2000,g 10.0,4.0
# From MPC 88332
270P/Gehrels,e,2.9168,222.9585,210.0702,6.673878,0.0571659,0.46717416,115.4197,12/21.0/2018,2000,g  8.0,4.0
# From MPC 92277
271P/van Houten-Lemmon,e,6.8588,9.2900,36.6581,7.057595,0.0525677,0.39255638,104.5952,12/21.0/2018,2000,g 11.0,4.0
# From MPC 81862
272P/NEAT,e,18.0787,109.4763,28.0780,4.450690,0.1049695,0.45447396,223.0584,12/21.0/2018,2000,g 16.0,2.0
# From MPC 82723
273P/Pons-Gambart,e,136.6128,320.4000,20.2256,31.58101,0.0055535,0.97407955,0.0000,12/16.7154/2012,2000,g 11.5,4.0
# From MPC 88332
274P/Tombaugh-Tenagra,e,15.8181,81.3384,38.5980,4.368004,0.1079641,0.43868314,229.8776,12/21.0/2018,2000,g 13.0,4.0
# From MPC 81862
275P/Hermann,e,21.3152,348.7460,174.1394,5.768503,0.0711393,0.71336669,155.4849,12/21.0/2018,2000,g 15.0,4.0
# From MPC 84935
276P/Vorobjov,e,14.8871,211.6210,200.5501,5.295615,0.0808778,0.26990037,182.5300,12/21.0/2018,2000,g 11.5,4.0
# From MPC105243
277P/LINEAR,e,16.7719,276.3375,152.1715,3.856043,0.1301641,0.50470826,263.6191,12/21.0/2018,2000,g 14.0,4.0
# From MPC105243
278P/McNaught,e,6.6838,15.4642,237.9953,3.695027,0.1387643,0.43479942,272.4476,12/21.0/2018,2000,g 14.0,4.0
# From MPC 10028
279P/La Sagra,e,5.0480,346.2260,5.7825,3.577885,0.1456346,0.39723451,129.5532,12/21.0/2018,2000,g 14.0,4.0
# From MPC 89013
280P/Larsen,e,11.7708,131.4285,104.7255,4.528430,0.1022781,0.41847135,187.5888,12/21.0/2018,2000,g 12.5,4.0
# From MPC 83145
281P/MOSS,e,4.7198,87.1721,27.1487,4.865786,0.0918279,0.17154293,221.5452,12/21.0/2018,2000,g 11.0,4.0
# From unp
282P/,e,5.8088,9.3302,217.2817,4.248011,0.1125708,0.18952928,243.3143,12/21.0/2018,2000,g 13.5,2.0
# From MPC 84027
283P/Spacewatch,e,14.4577,161.1739,22.2792,4.138061,0.1170870,0.48554257,243.8871,12/21.0/2018,2000,g 16.0,2.0
# From MPC 93589
284P/McNaught,e,11.8592,144.2906,202.7544,3.672730,0.1400298,0.37567913,220.2464,12/21.0/2018,2000,g 13.0,4.0
# From MPC 85339
285P/LINEAR,e,25.0119,185.4751,178.4315,4.509332,0.1029285,0.61747330,207.1526,12/21.0/2018,2000,g 15.0,4.0
# From MPC 90771
286P/Christensen,e,17.0424,283.9555,24.6871,4.114163,0.1181087,0.42454546,213.6704,12/21.0/2018,2000,g 14.0,4.0
# From MPC 96868
287P/Christensen,e,16.3110,139.0307,188.8056,4.171407,0.1156859,0.26969144,168.2132,12/21.0/2018,2000,g 13.5,4.0
# From unp
288P/,e,3.2403,83.1870,280.8771,3.047466,0.1852660,0.20117876,143.2668,12/21.0/2018,2000,g 16.0,2.0
# From MPC102102
289P/Blanpain,e,5.8979,68.9292,9.8271,3.045525,0.1854432,0.68499433,292.3112,12/21.0/2018,2000,g 10.0,4.0
# From MPC 95214
290P/Jager,e,19.1480,303.2887,180.9046,6.130914,0.0649256,0.64765419,113.2952,12/21.0/2018,2000,g 10.5,4.0
# From MPC 89314
291P/NEAT,e,6.3866,238.3510,174.8843,4.477756,0.1040192,0.44255479,193.6103,12/21.0/2018,2000,g 13.0,4.0
# From MPC110085
292P/Li,e,24.2524,91.0003,319.5619,6.115147,0.0651769,0.58720688,116.3498,12/21.0/2018,2000,g 12.5,4.0
# From MPC 92278
293P/Spacewatch,e,9.0574,78.4105,41.1682,3.640854,0.1418728,0.41820321,256.5022,12/21.0/2018,2000,g 14.5,4.0
# From MPC 89013
294P/LINEAR,e,18.2131,312.6062,235.5154,3.205614,0.1717265,0.59431227,300.9788,12/21.0/2018,2000,g 15.5,4.0
# From MPC 93589
295P/LINEAR,e,21.0877,7.4993,73.0019,5.307523,0.0806058,0.61641237,135.8148,12/21.0/2018,2000,g 12.0,4.0
# From MPC 92278
296P/Garradd,e,25.2341,263.6402,350.0554,3.498710,0.1506060,0.47845619,264.0894,12/21.0/2018,2000,g 14.0,4.0
# From MPC102956
297P/Beshore,e,10.3276,97.6613,132.3729,3.445101,0.1541350,0.31948241,242.3339,12/21.0/2018,2000,g 15.0,4.0
# From MPC105243
298P/Christensen,e,7.8718,52.8302,100.7415,3.592990,0.1447172,0.38718395,269.4958,12/21.0/2018,2000,g 15.0,4.0
# From MPC101100
299P/Catalina-PANSTARRS,e,10.4772,271.6280,323.8221,4.381423,0.1074685,0.28263492,149.9513,12/21.0/2018,2000,g 11.5,4.0
# From MPC111774
300P/Catalina,e,5.6761,95.6739,222.8485,2.699277,0.2222455,0.69147013,10.8786,12/21.0/2018,2000,g 16.0,4.0
# From MPC 89014
301P/LINEAR-NEAT,e,10.3568,351.1764,193.7165,5.734599,0.0717711,0.58670415,112.7856,12/21.0/2018,2000,g 13.0,4.0
# From MPC108598
302P/Lemmon-PANSTARRS,e,6.0320,121.7556,208.1746,4.279604,0.1113265,0.22906764,107.4054,12/21.0/2018,2000,g 12.5,4.0
# From MPC 92278
303P/NEAT,e,7.0095,347.9847,356.8553,5.053139,0.0867685,0.50904373,132.7164,12/21.0/2018,2000,g 13.5,4.0
# From MPC 92987
304P/Ory,e,2.6374,59.0691,335.0296,3.156606,0.1757411,0.60396007,254.8849,12/21.0/2018,2000,g 16.5,4.0
# From MPC101100
305P/Skiff,e,11.6365,240.1480,147.2919,4.646874,0.0983927,0.69225985,147.2640,12/21.0/2018,2000,g 18.0,4.0
# From MPC 92278
306P/LINEAR,e,8.3133,341.4353,0.8110,3.120535,0.1787971,0.59348579,288.8658,12/21.0/2018,2000,g 19.0,4.0
# From MPC 91619
307P/LINEAR,e,4.4266,158.0966,222.2576,5.799933,0.0705618,0.67319768,103.2331,12/21.0/2018,2000,g 15.0,4.0
# From MPC109148
308P/Lagerkvist-Carsenty,e,4.8489,63.1339,333.7978,6.616392,0.0579125,0.36203257,76.7754,12/21.0/2018,2000,g 13.0,2.0
# From MPC 94284
309P/LINEAR,e,17.0622,10.2838,49.9758,4.368305,0.1079530,0.61853313,151.7747,12/21.0/2018,2000,g 15.0,4.0
# From MPC 98566
310P/Hill,e,13.1393,8.9564,31.9738,4.174980,0.1155374,0.42241799,155.4417,12/21.0/2018,2000,g 13.5,4.0
# From MPC109593
